{
  "norad_id": 65571,
  "name": "PRAETORIAN SDA_608",
  "history": [
    {
      "epoch": "2026-05-03T18:05:44.518272Z",
      "apogee_km": 954.5725581703218,
      "perigee_km": 946.2400044594679,
      "latitude_deg": -1.2053908142711355e-05,
      "longitude_deg": -81.15103549259625,
      "height_km": 949.6325204136867,
      "semi_major_axis_km": 7328.543281314895,
      "eccentricity": 0.0005685,
      "inclination_deg": 81.3021,
      "raan_deg": 51.9376,
      "arg_perigee_deg": 330.936,
      "mean_anomaly_deg": 29.1479,
      "mean_motion_rev_day": 13.838094
    },
    {
      "epoch": "2026-05-04T18:23:22.971840Z",
      "apogee_km": 954.5359099943298,
      "perigee_km": 946.275176839391,
      "latitude_deg": 1.7253150284137327e-05,
      "longitude_deg": -87.49587744937504,
      "height_km": 949.77318607007,
      "semi_major_axis_km": 7328.54254341686,
      "eccentricity": 0.0005636,
      "inclination_deg": 81.3021,
      "raan_deg": 51.0007,
      "arg_perigee_deg": 327.9415,
      "mean_anomaly_deg": 32.1398,
      "mean_motion_rev_day": 13.83809609
    },
    {
      "epoch": "2026-05-05T18:41:01.402080Z",
      "apogee_km": 954.5039820250395,
      "perigee_km": 946.3048099112302,
      "latitude_deg": 2.967689256549614e-05,
      "longitude_deg": -93.84052486835947,
      "height_km": 949.9159150640086,
      "semi_major_axis_km": 7328.541395968135,
      "eccentricity": 0.0005594,
      "inclination_deg": 81.3022,
      "raan_deg": 50.0639,
      "arg_perigee_deg": 324.9685,
      "mean_anomaly_deg": 35.1103,
      "mean_motion_rev_day": 13.83809934
    },
    {
      "epoch": "2026-05-06T20:42:46.841760Z",
      "apogee_km": 954.4654301190803,
      "perigee_km": 946.3410104308841,
      "latitude_deg": 1.5790313273279015e-05,
      "longitude_deg": -126.35264803414545,
      "height_km": 950.0799084780524,
      "semi_major_axis_km": 7328.540220274982,
      "eccentricity": 0.0005543,
      "inclination_deg": 81.3023,
      "raan_deg": 49.0601,
      "arg_perigee_deg": 321.7922,
      "mean_anomaly_deg": 38.2841,
      "mean_motion_rev_day": 13.83810267
    }
  ]
}